GLOBALSTAR M057         
1 25943U 99058A   25196.59470404 -.00000036  00000+0  51980-3 0  9995
2 25943  51.9981 267.5870 0002873  82.8141 277.3034 12.24826092170412
GLOBALSTAR M059         
1 25944U 99058B   25196.52104192 -.00000103  00000+0 -20940-3 0  9995
2 25944  52.0011 130.5205 0001025  10.0851 162.1332 11.99980176577440
GLOBALSTAR M056         
1 25945U 99058C   25196.57332394 -.00000146  00000+0 -68870-3 0  9999
2 25945  51.9956 131.6100 0000629 262.1613 269.0002 12.04781338166090
GLOBALSTAR M031         
1 25946U 99058D   25196.51213668 -.00000111  00000+0 -21149-3 0  9996
2 25946  51.9979  22.4124 0000689 202.3621 174.3945 12.16038076167991
GLOBALSTAR M039         
1 25961U 99062A   25196.35307069 -.00000095  00000+0  48677-4 0  9995
2 25961  51.9819 182.9285 0002765  48.0333 312.0769 12.62329929183773
GLOBALSTAR M034         
1 25962U 99062B   25196.58222238 -.00000139  00000+0 -92290-3 0  9994
2 25962  51.9887 297.5787 0014537  96.5549 276.4377 11.79445865141740
GLOBALSTAR M029         
1 25963U 99062C   25196.58170394 -.00000083  00000+0  39752-4 0  9992
2 25963  51.9822  18.3685 0002675 155.2780 231.1494 11.99898329172534
GLOBALSTAR M061         
1 25964U 99062D   25196.26303953 -.00000110  00000+0 -49110-3 0  9997
2 25964  51.9788 122.8137 0006536  17.4022 150.4059 11.76776133124481
